H1 CPF 01  gfz 2022 06 18 00  6691 terrasarx 
H2 0702601  6201 31698    2022 06 18 00 59 42 2022 06 23 00 00 42   120 1 1  0 0 0
H9
10 0 59750  79182.000000  0    3398980.612  -4884982.667  -3478838.710
10 0 59750  79302.000000  0    3469660.983  -5322820.547  -2671733.941
10 0 59750  79422.000000  0    3472997.892  -5668515.345  -1817723.677
10 0 59750  79542.000000  0    3410553.940  -5914785.471   -931773.174
10 0 59750  79662.000000  0    3285161.561  -6056128.506    -29439.082
10 0 59750  79782.000000  0    3100844.352  -6088947.186    873410.276
10 0 59750  79902.000000  0    2862714.526  -6011638.930   1760881.194
10 0 59750  80022.000000  0    2576848.170  -5824644.809   2617344.966
10 0 59750  80142.000000  0    2250140.101  -5530455.481   3427721.389
10 0 59750  80262.000000  0    1890144.094  -5133576.774   4177749.611
10 0 59750  80382.000000  0    1504902.343  -4640455.958   4854243.092
10 0 59750  80502.000000  0    1102768.984  -4059369.608   5445322.507
10 0 59750  80622.000000  0     692230.213  -3400276.063   5940624.231
10 0 59750  80742.000000  0     281725.637  -2674635.041   6331476.780
10 0 59750  80862.000000  0    -120523.735  -1895202.162   6611045.460
10 0 59750  80982.000000  0    -506678.120  -1075801.509   6774445.390
10 0 59750  81102.000000  0    -869430.323   -231078.949   6818822.938
10 0 59750  81222.000000  0   -1202142.953    623760.638   6743402.684
10 0 59750  81342.000000  0   -1498969.406   1473226.696   6549499.749
10 0 59750  81462.000000  0   -1754956.460   2301822.744   6240498.266
10 0 59750  81582.000000  0   -1966127.574   3094328.891   5821796.121
10 0 59750  81702.000000  0   -2129544.978   3836082.590   5300715.781
10 0 59750  81822.000000  0   -2243350.148   4513253.327   4686383.411
10 0 59750  81942.000000  0   -2306782.030   5113107.090   3989574.788
10 0 59750  82062.000000  0   -2320171.855   5624254.071   3222530.054
10 0 59750  82182.000000  0   -2284914.664   6036873.486   2398739.229
10 0 59750  82302.000000  0   -2203418.016   6342910.519   1532703.457
10 0 59750  82422.000000  0   -2079028.553   6536241.010    639675.260
10 0 59750  82542.000000  0   -1915938.372   6612798.995   -264616.685
10 0 59750  82662.000000  0   -1719073.890   6570664.148  -1164252.964
10 0 59750  82782.000000  0   -1493969.150   6410106.126  -2043415.164
10 0 59750  82902.000000  0   -1246626.351   6133579.635  -2886673.487
10 0 59750  83022.000000  0    -983369.511   5745676.866  -3679260.546
10 0 59750  83142.000000  0    -710694.642   5253040.904  -4407330.683
10 0 59750  83262.000000  0    -435119.907   4664239.642  -5058199.596
10 0 59750  83382.000000  0    -163038.770   3989605.777  -5620559.346
10 0 59750  83502.000000  0      99420.693   3241045.683  -6084667.119
10 0 59750  83622.000000  0     346526.790   2431821.011  -6442503.458
10 0 59750  83742.000000  0     573062.521   1576310.026  -6687898.664
10 0 59750  83862.000000  0     774430.448    689752.952  -6816629.345
10 0 59750  83982.000000  0     946741.753   -212016.296  -6826483.262
10 0 59750  84102.000000  0    1086888.403  -1112847.772  -6717292.812
10 0 59750  84222.000000  0    1192597.394  -1996557.391  -6490935.786
10 0 59750  84342.000000  0    1262467.016  -2847209.232  -6151306.914
10 0 59750  84462.000000  0    1295985.083  -3649397.911  -5704260.237
10 0 59750  84582.000000  0    1293526.832  -4388527.384  -5157518.123
10 0 59750  84702.000000  0    1256334.549  -5051077.458  -4520547.875
10 0 59750  84822.000000  0    1186478.275  -5624856.233  -3804409.706
10 0 59750  84942.000000  0    1086797.196  -6099233.713  -3021573.787
10 0 59750  85062.000000  0     960823.907  -6465349.624  -2185709.585
10 0 59750  85182.000000  0     812692.872  -6716291.589  -1311450.202
10 0 59750  85302.000000  0     647034.097  -6847237.714   -414134.709
10 0 59750  85422.000000  0     468854.913  -6855558.534    490465.702
10 0 59750  85542.000000  0     283413.000  -6740876.551   1386431.481
10 0 59750  85662.000000  0      96083.711  -6505081.328   2257983.684
10 0 59750  85782.000000  0     -87774.926  -6152298.169   3089772.044
10 0 59750  85902.000000  0    -262956.009  -5688809.460   3867153.987
10 0 59750  86022.000000  0    -424533.269  -5122933.880   4576455.962
10 0 59750  86142.000000  0    -567982.401  -4464868.099   5205216.244
10 0 59750  86262.000000  0    -689291.252  -3726493.144   5742403.158
10 0 59750  86382.000000  0    -785056.945  -2921150.006   6178606.521
10 0 59751    102.000000  0    -852567.518  -2063389.415   6506195.903
10 0 59751    222.000000  0    -889866.642  -1168705.080   6719446.400
10 0 59751    342.000000  0    -895800.928   -253252.159   6814634.034
10 0 59751    462.000000  0    -870049.168    666445.467   6790097.210
10 0 59751    582.000000  0    -813131.440   1573793.146   6646263.967
10 0 59751    702.000000  0    -726398.418   2452424.322   6385644.849
10 0 59751    822.000000  0    -612001.683   3286495.462   6012791.868
10 0 59751    942.000000  0    -472845.685   4060973.308   5534223.941
10 0 59751   1062.000000  0    -312521.694   4761909.105   4958318.311
10 0 59751   1182.000000  0    -135224.924   5376696.414   4295170.832
10 0 59751   1302.000000  0      54344.063   5894306.271   3556421.818
10 0 59751   1422.000000  0     251090.311   6305492.349   2755057.042
10 0 59751   1542.000000  0     449646.715   6602972.083   1905179.811
10 0 59751   1662.000000  0     644505.815   6781563.337   1021755.650
10 0 59751   1782.000000  0     830155.576   6838280.055    120342.819
10 0 59751   1902.000000  0    1001217.235   6772384.803   -783189.743
10 0 59751   2022.000000  0    1152580.076   6585395.463  -1672950.569
10 0 59751   2142.000000  0    1279530.037   6281047.392  -2533312.613
10 0 59751   2262.000000  0    1377869.600   5865211.978  -3349193.902
10 0 59751   2382.000000  0    1444026.088   5345773.296  -4106325.580
10 0 59751   2502.000000  0    1475145.829   4732466.635  -4791501.648
10 0 59751   2622.000000  0    1469171.791   4036683.532  -5392804.916
10 0 59751   2742.000000  0    1424903.061   3271250.421  -5899806.322
10 0 59751   2862.000000  0    1342035.430   2450184.461  -6303736.462
10 0 59751   2982.000000  0    1221182.056   1588432.355  -6597625.009
10 0 59751   3102.000000  0    1063875.080    701599.223  -6776410.102
10 0 59751   3222.000000  0     872547.602   -194330.976  -6837017.139
10 0 59751   3342.000000  0     650496.362  -1083278.503  -6778405.213
10 0 59751   3462.000000  0     401825.699  -1949349.222  -6601581.390
10 0 59751   3582.000000  0     131374.485  -2777110.167  -6309585.602
10 0 59751   3702.000000  0    -155374.771  -3551860.099  -5907446.224
10 0 59751   3822.000000  0    -452402.530  -4259888.802  -5402101.465
10 0 59751   3942.000000  0    -753272.376  -4888720.521  -4802290.904
10 0 59751   4062.000000  0   -1051264.252  -5427339.288  -4118416.037
10 0 59751   4182.000000  0   -1339518.166  -5866390.694  -3362369.992
10 0 59751   4302.000000  0   -1611185.028  -6198355.116  -2547338.416
10 0 59751   4422.000000  0   -1859581.639  -6417688.840  -1687574.504
10 0 59751   4542.000000  0   -2078346.156  -6520929.201   -798150.289
10 0 59751   4662.000000  0   -2261589.982  -6506759.405    105311.228
10 0 59751   4782.000000  0   -2404042.479  -6376030.231   1006917.193
10 0 59751   4902.000000  0   -2501184.343  -6131737.915   1890792.893
10 0 59751   5022.000000  0   -2549366.052  -5778958.489   2741370.536
10 0 59751   5142.000000  0   -2545907.965  -5324740.021   3543671.889
10 0 59751   5262.000000  0   -2489179.476  -4777955.995   4283578.151
10 0 59751   5382.000000  0   -2378655.959  -4149124.579   4948081.585
10 0 59751   5502.000000  0   -2214952.857  -3450198.199   5525515.376
10 0 59751   5622.000000  0   -1999834.804  -2694326.928   6005756.456
10 0 59751   5742.000000  0   -1736199.890  -1895604.456   6380397.718
10 0 59751   5862.000000  0   -1428040.453  -1068801.291   6642889.942
10 0 59751   5982.000000  0   -1080381.620   -229087.728   6788650.147
10 0 59751   6102.000000  0    -699199.403    608244.872   6815134.979
10 0 59751   6222.000000  0    -291318.140   1428061.396   6721883.141
10 0 59751   6342.000000  0     135711.719   2215656.324   6510523.205
10 0 59751   6462.000000  0     573753.107   2957017.367   6184746.573
10 0 59751   6582.000000  0    1014236.166   3639075.084   5750247.071
10 0 59751   6702.000000  0    1448324.395   4249936.377   5214627.149
10 0 59751   6822.000000  0    1867090.663   4779097.034   4587271.069
10 0 59751   6942.000000  0    2261700.203   5217629.454   3879185.399
10 0 59751   7062.000000  0    2623596.378   5558339.596   3102810.186
10 0 59751   7182.000000  0    2944685.716   5795895.454   2271802.975
10 0 59751   7302.000000  0    3217517.545   5926918.296   1400793.838
10 0 59751   7422.000000  0    3435452.247   5950032.218    505121.892
10 0 59751   7542.000000  0    3592814.838   5865874.969   -399441.962
10 0 59751   7662.000000  0    3685030.871   5677067.356  -1296981.356
10 0 59751   7782.000000  0    3708739.822   5388142.973  -2171722.341
10 0 59751   7902.000000  0    3661884.151   5005440.200  -3008318.006
10 0 59751   8022.000000  0    3543770.715   4536958.586  -3792122.899
10 0 59751   8142.000000  0    3355103.490   3992184.383  -4509450.265
10 0 59751   8262.000000  0    3097988.597   3381891.800  -5147808.254
10 0 59751   8382.000000  0    2775911.020   2717923.113  -5696111.950
10 0 59751   8502.000000  0    2393684.587   2012953.454  -6144866.591
10 0 59751   8622.000000  0    1957376.176   1280246.116  -6486321.095
10 0 59751   8742.000000  0    1474207.224    533403.351  -6714589.487
10 0 59751   8862.000000  0     952434.470   -213882.340  -6825742.773
10 0 59751   8982.000000  0     401209.146   -948074.817  -6817870.005
10 0 59751   9102.000000  0    -169580.754  -1656033.635  -6691105.675
10 0 59751   9222.000000  0    -749482.676  -2325242.154  -6447627.701
99
